GLOBALSTAR M001         
1 25162U 98008A   25133.58906127 -.00000122  00000+0 -19520-3 0  9999
2 25162  52.0039  73.9222 0001179 163.3715   8.0871 12.38213279239428
GLOBALSTAR M004         
1 25163U 98008B   25133.52253850 -.00000076  00000+0  15184-3 0  9991
2 25163  51.9977 159.9052 0003113 212.8342 303.1095 12.63395563257309
GLOBALSTAR M002         
1 25164U 98008C   25133.57023789 -.00000053  00000+0  46440-3 0  9997
2 25164  52.0033 327.0009 0002241  89.2298 270.8779 11.61510059180111
GLOBALSTAR M003         
1 25165U 98008D   25133.63809145 -.00000094  00000+0 -49793-4 0  9994
2 25165  51.9999 264.2092 0007890 219.6679 153.3452 12.12076372229032
GLOBALSTAR M014         
1 25306U 98023A   25133.84369053 -.00000078  00000+0 -90674-5 0  9997
2 25306  51.9836 250.2616 0000535 263.4450 265.1145 11.65480389187150
GLOBALSTAR M006         
1 25307U 98023B   25133.76813581 -.00000060  00000+0  32982-3 0  9995
2 25307  51.9946 301.6393 0003659  54.3221 319.1863 11.58175028212956
GLOBALSTAR M015         
1 25308U 98023C   25133.86300497 -.00000075  00000+0 -37827-4 0  9995
2 25308  51.9850  38.2977 0012979  16.3987  71.5923 11.48859244190504
GLOBALSTAR M008         
1 25309U 98023D   25133.53962006 -.00000092  00000+0  30230-4 0  9999
2 25309  51.9974 298.5071 0003423 104.6378 299.1289 12.36068555233569
